{
  "type": "FeatureCollection",
  "features": [
    {
      "type": "Feature",
      "properties": {
        "norad_id": 32195,
        "name": "FENGYUN 1C DEB",
        "group": "fengyun-1c-debris",
        "lat": 54.271627971866266,
        "lon": 173.490347635656,
        "alt_km": 906.6725435087901,
        "timestamp": "2025-12-04T10:51:50.391345+00:00",
        "meta_object_name": "FENGYUN 1C DEB",
        "meta_object_id": "1999-025CUR",
        "meta_epoch": "2025-12-01T17:29:04.257600",
        "meta_mean_motion": 14.08429834,
        "meta_eccentricity": 0.00689475,
        "meta_inclination": 98.7739,
        "meta_ra_of_asc_node": 338.4429,
        "meta_arg_of_pericenter": 331.6193,
        "meta_mean_anomaly": 28.1229,
        "meta_ephemeris_type": 0,
        "meta_classification_type": "U",
        "meta_norad_cat_id": 32195,
        "meta_element_set_no": 999,
        "meta_rev_at_epoch": 63827,
        "meta_bstar": 0.0006643102,
        "meta_mean_motion_dot": 1.12e-05,
        "meta_mean_motion_ddot": 0,
        "tle_line1": "1 32195U 99025CUR 25335.72852150  .00001120  00000+0  66431-3 0  9999",
        "tle_line2": "2 32195  98.7739 338.4429 0068947 331.6193  28.1229 14.08429834638271"
      },
      "geometry": {
        "type": "Point",
        "coordinates": [
          173.490347635656,
          54.271627971866266
        ]
      }
    },
    {
      "type": "Feature",
      "properties": {
        "norad_id": 32197,
        "name": "FENGYUN 1C DEB",
        "group": "fengyun-1c-debris",
        "lat": -62.92312357953524,
        "lon": 49.45383029132772,
        "alt_km": 676.3718186434526,
        "timestamp": "2025-12-04T10:51:50.391355+00:00",
        "meta_object_name": "FENGYUN 1C DEB",
        "meta_object_id": "1999-025CUT",
        "meta_epoch": "2025-12-03T23:57:59.056416",
        "meta_mean_motion": 14.32629771,
        "meta_eccentricity": 0.0161179,
        "meta_inclination": 98.9011,
        "meta_ra_of_asc_node": 246.8393,
        "meta_arg_of_pericenter": 255.6326,
        "meta_mean_anomaly": 168.4475,
        "meta_ephemeris_type": 0,
        "meta_classification_type": "U",
        "meta_norad_cat_id": 32197,
        "meta_element_set_no": 999,
        "meta_rev_at_epoch": 94298,
        "meta_bstar": 0.0009328,
        "meta_mean_motion_dot": 2.876e-05,
        "meta_mean_motion_ddot": 0,
        "tle_line1": "1 32197U 99025CUT 25337.99860019  .00002876  00000+0  93280-3 0  9996",
        "tle_line2": "2 32197  98.9011 246.8393 0161179 255.6326 168.4475 14.32629771942980"
      },
      "geometry": {
        "type": "Point",
        "coordinates": [
          49.45383029132772,
          -62.92312357953524
        ]
      }
    },
    {
      "type": "Feature",
      "properties": {
        "norad_id": 32198,
        "name": "FENGYUN 1C DEB",
        "group": "fengyun-1c-debris",
        "lat": -57.98101043367641,
        "lon": -67.62437346984964,
        "alt_km": 855.5723898796341,
        "timestamp": "2025-12-04T10:51:50.391365+00:00",
        "meta_object_name": "FENGYUN 1C DEB",
        "meta_object_id": "1999-025CUU",
        "meta_epoch": "2025-11-26T15:55:14.672064",
        "meta_mean_motion": 14.08693486,
        "meta_eccentricity": 0.00946342,
        "meta_inclination": 98.344,
        "meta_ra_of_asc_node": 118.7379,
        "meta_arg_of_pericenter": 338.8779,
        "meta_mean_anomaly": 20.8495,
        "meta_ephemeris_type": 0,
        "meta_classification_type": "U",
        "meta_norad_cat_id": 32198,
        "meta_element_set_no": 999,
        "meta_rev_at_epoch": 56719,
        "meta_bstar": 0.0016262032,
        "meta_mean_motion_dot": 2.879e-05,
        "meta_mean_motion_ddot": 0,
        "tle_line1": "1 32198U 99025CUU 25330.66336426  .00002879  00000+0  16262-2 0  9991",
        "tle_line2": "2 32198  98.3440 118.7379 0094634 338.8779  20.8495 14.08693486567195"
      },
      "geometry": {
        "type": "Point",
        "coordinates": [
          -67.62437346984964,
          -57.98101043367641
        ]
      }
    },
    {
      "type": "Feature",
      "properties": {
        "norad_id": 32200,
        "name": "FENGYUN 1C DEB",
        "group": "fengyun-1c-debris",
        "lat": -52.279209299416976,
        "lon": 39.080672896918564,
        "alt_km": 818.9479345913478,
        "timestamp": "2025-12-04T10:51:50.391379+00:00",
        "meta_object_name": "FENGYUN 1C DEB",
        "meta_object_id": "1999-025CUW",
        "meta_epoch": "2025-12-01T10:10:20.091360",
        "meta_mean_motion": 14.1562895,
        "meta_eccentricity": 0.00392526,
        "meta_inclination": 98.7925,
        "meta_ra_of_asc_node": 24.5506,
        "meta_arg_of_pericenter": 323.0087,
        "meta_mean_anomaly": 36.8381,
        "meta_ephemeris_type": 0,
        "meta_classification_type": "U",
        "meta_norad_cat_id": 32200,
        "meta_element_set_no": 999,
        "meta_rev_at_epoch": 94203,
        "meta_bstar": 0.0011757529,
        "meta_mean_motion_dot": 2.276e-05,
        "meta_mean_motion_ddot": 0,
        "tle_line1": "1 32200U 99025CUW 25335.42384365  .00002276  00000+0  11758-2 0  9995",
        "tle_line2": "2 32200  98.7925  24.5506 0039252 323.0087  36.8381 14.15628950942033"
      },
      "geometry": {
        "type": "Point",
        "coordinates": [
          39.080672896918564,
          -52.279209299416976
        ]
      }
    },
    {
      "type": "Feature",
      "properties": {
        "norad_id": 32203,
        "name": "FENGYUN 1C DEB",
        "group": "fengyun-1c-debris",
        "lat": -11.428502607355005,
        "lon": -128.305184495737,
        "alt_km": 518.4605955227898,
        "timestamp": "2025-12-04T10:51:50.391391+00:00",
        "meta_object_name": "FENGYUN 1C DEB",
        "meta_object_id": "1999-025CUZ",
        "meta_epoch": "2025-12-03T03:43:09.125472",
        "meta_mean_motion": 15.39646762,
        "meta_eccentricity": 0.01471116,
        "meta_inclination": 97.0173,
        "meta_ra_of_asc_node": 229.0233,
        "meta_arg_of_pericenter": 126.0108,
        "meta_mean_anomaly": 235.488,
        "meta_ephemeris_type": 0,
        "meta_classification_type": "U",
        "meta_norad_cat_id": 32203,
        "meta_element_set_no": 999,
        "meta_rev_at_epoch": 74950,
        "meta_bstar": 0.00079053984,
        "meta_mean_motion_dot": 0.00045869,
        "meta_mean_motion_ddot": 0,
        "tle_line1": "1 32203U 99025CUZ 25337.15496673  .00045869  00000+0  79054-3 0  9995",
        "tle_line2": "2 32203  97.0173 229.0233 0147111 126.0108 235.4880 15.39646762749507"
      },
      "geometry": {
        "type": "Point",
        "coordinates": [
          -128.305184495737,
          -11.428502607355005
        ]
      }
    },
    {
      "type": "Feature",
      "properties": {
        "norad_id": 32205,
        "name": "FENGYUN 1C DEB",
        "group": "fengyun-1c-debris",
        "lat": -26.954060989683736,
        "lon": -12.951341014333574,
        "alt_km": 844.5352313713483,
        "timestamp": "2025-12-04T10:51:50.391401+00:00",
        "meta_object_name": "FENGYUN 1C DEB",
        "meta_object_id": "1999-025CVB",
        "meta_epoch": "2025-12-03T18:51:38.525184",
        "meta_mean_motion": 14.13901782,
        "meta_eccentricity": 0.00102944,
        "meta_inclination": 98.6784,
        "meta_ra_of_asc_node": 341.9469,
        "meta_arg_of_pericenter": 319.7737,
        "meta_mean_anomaly": 220.8518,
        "meta_ephemeris_type": 0,
        "meta_classification_type": "U",
        "meta_norad_cat_id": 32205,
        "meta_element_set_no": 999,
        "meta_rev_at_epoch": 94371,
        "meta_bstar": 0.00024481357,
        "meta_mean_motion_dot": 4.22e-06,
        "meta_mean_motion_ddot": 0,
        "tle_line1": "1 32205U 99025CVB 25337.78586256  .00000422  00000+0  24481-3 0  9993",
        "tle_line2": "2 32205  98.6784 341.9469 0010294 319.7737 220.8518 14.13901782943711"
      },
      "geometry": {
        "type": "Point",
        "coordinates": [
          -12.951341014333574,
          -26.954060989683736
        ]
      }
    },
    {
      "type": "Feature",
      "properties": {
        "norad_id": 32209,
        "name": "FENGYUN 1C DEB",
        "group": "fengyun-1c-debris",
        "lat": 49.75036889982234,
        "lon": 117.65129025389548,
        "alt_km": 1041.6302075140093,
        "timestamp": "2025-12-04T10:51:50.391411+00:00",
        "meta_object_name": "FENGYUN 1C DEB",
        "meta_object_id": "1999-025CVF",
        "meta_epoch": "2025-12-01T19:52:12.211968",
        "meta_mean_motion": 13.47100658,
        "meta_eccentricity": 0.03328885,
        "meta_inclination": 99.4197,
        "meta_ra_of_asc_node": 283.8685,
        "meta_arg_of_pericenter": 52.3889,
        "meta_mean_anomaly": 310.6974,
        "meta_ephemeris_type": 0,
        "meta_classification_type": "U",
        "meta_norad_cat_id": 32209,
        "meta_element_set_no": 999,
        "meta_rev_at_epoch": 89829,
        "meta_bstar": 0.002968545,
        "meta_mean_motion_dot": 2.491e-05,
        "meta_mean_motion_ddot": 0,
        "tle_line1": "1 32209U 99025CVF 25335.82791912  .00002491  00000+0  29685-2 0  9995",
        "tle_line2": "2 32209  99.4197 283.8685 0332888  52.3889 310.6974 13.47100658898295"
      },
      "geometry": {
        "type": "Point",
        "coordinates": [
          117.65129025389548,
          49.75036889982234
        ]
      }
    }
  ]
}